start=new Date('2021-11-17T00:00:00.000Z').valueOf();
sats=[{"CLASSIFICATION_TYPE":"U","APOAPSIS":"548.335","INCLINATION":"53.0545","SEMIMAJOR_AXIS":"6925.360","MEAN_MOTION_DOT":"-0.00000540","TLE_LINE2":"2 45559  53.0545 313.3927 0001602  68.9100 291.2060 15.06396151 88107","MEAN_ANOMALY":"291.2060","FILE":"3216827","BSTAR":"-0.00001736800000","REF_FRAME":"TEME","GP_ID":"189880637","ELEMENT_SET_NO":"999","SITE":"AFETR","RA_OF_ASC_NODE":"313.3927","PERIAPSIS":"546.116","MEAN_MOTION_DDOT":"0.0000000000000","OBJECT_NAME":"STARLINK-1344","MEAN_ELEMENT_THEORY":"SGP4","CENTER_NAME":"EARTH","TIME_SYSTEM":"UTC","EPOCH":"2021-11-16T12:12:11.691360","COUNTRY_CODE":"US","OBJECT_TYPE":"PAYLOAD","REV_AT_EPOCH":"8810","ARG_OF_PERICENTER":"68.9100","NORAD_CAT_ID":"45559","PERIOD":"95.592","LAUNCH_DATE":"2020-04-22","OBJECT_ID":"2020-025AE","RCS_SIZE":"LARGE","ECCENTRICITY":"0.00016020","DECAY_DATE":null,"MEAN_MOTION":"15.06396151","TLE_LINE1":"1 45559U 20025AE  21320.50846865 -.00000540  00000-0 -17368-4 0  9997","EPHEMERIS_TYPE":"0"},{"DECAY_DATE":null,"MEAN_MOTION":"15.06389251","TLE_LINE1":"1 45560U 20025AF  21320.22927377  .00001095  00000-0  92407-4 0  9997","EPHEMERIS_TYPE":"0","LAUNCH_DATE":"2020-04-22","OBJECT_ID":"2020-025AF","ECCENTRICITY":"0.00015500","RCS_SIZE":"LARGE","MEAN_ELEMENT_THEORY":"SGP4","TIME_SYSTEM":"UTC","CENTER_NAME":"EARTH","EPOCH":"2021-11-16T05:30:09.253728","REV_AT_EPOCH":"8820","COUNTRY_CODE":"US","OBJECT_TYPE":"PAYLOAD","ARG_OF_PERICENTER":"64.8550","NORAD_CAT_ID":"45560","PERIOD":"95.593","CLASSIFICATION_TYPE":"U","SEMIMAJOR_AXIS":"6925.382","INCLINATION":"53.0550","APOAPSIS":"548.320","TLE_LINE2":"2 45560  53.0550 304.6526 0001550  64.8550 295.2600 15.06389251 88207","MEAN_MOTION_DOT":"0.00001095","REF_FRAME":"TEME","BSTAR":"0.00009240700000","FILE":"3216827","MEAN_ANOMALY":"295.2600","GP_ID":"189879385","ELEMENT_SET_NO":"999","RA_OF_ASC_NODE":"304.6526","SITE":"AFETR","OBJECT_NAME":"STARLINK-1346","MEAN_MOTION_DDOT":"0.0000000000000","PERIAPSIS":"546.173"},{"EPHEMERIS_TYPE":"0","TLE_LINE1":"1 45561U 20025AG  21320.44230107  .00004647  00000-0  31956-3 0  9997","MEAN_MOTION":"15.07686430","DECAY_DATE":null,"ECCENTRICITY":"0.00018900","RCS_SIZE":"LARGE","OBJECT_ID":"2020-025AG","LAUNCH_DATE":"2020-04-22","PERIOD":"95.511","NORAD_CAT_ID":"45561","ARG_OF_PERICENTER":"65.7447","REV_AT_EPOCH":"8929","OBJECT_TYPE":"PAYLOAD","COUNTRY_CODE":"US","EPOCH":"2021-11-16T10:36:54.812448","TIME_SYSTEM":"UTC","CENTER_NAME":"EARTH","MEAN_ELEMENT_THEORY":"SGP4","OBJECT_NAME":"STARLINK-1348","PERIAPSIS":"541.965","MEAN_MOTION_DDOT":"0.0000000000000","RA_OF_ASC_NODE":"228.2309","SITE":"AFETR","ELEMENT_SET_NO":"999","GP_ID":"189879629","REF_FRAME":"TEME","BSTAR":"0.00031956000000","FILE":"3216827","MEAN_ANOMALY":"294.3740","TLE_LINE2":"2 45561  53.0587 228.2309 0001890  65.7447 294.3740 15.07686430 89295","MEAN_MOTION_DOT":"0.00004647","SEMIMAJOR_AXIS":"6921.409","INCLINATION":"53.0587","APOAPSIS":"544.582","CLASSIFICATION_TYPE":"U"},{"ECCENTRICITY":"0.00015410","RCS_SIZE":"LARGE","LAUNCH_DATE":"2020-04-22","OBJECT_ID":"2020-025AH","EPHEMERIS_TYPE":"0","TLE_LINE1":"1 45562U 20025AH  21320.38314774 -.00000366  00000-0 -56792-5 0  9997","MEAN_MOTION":"15.06393661","DECAY_DATE":null,"OBJECT_NAME":"STARLINK-1354","PERIAPSIS":"546.166","MEAN_MOTION_DDOT":"0.0000000000000","GP_ID":"189880387","ELEMENT_SET_NO":"999","RA_OF_ASC_NODE":"313.9586","SITE":"AFETR","TLE_LINE2":"2 45562  53.0544 313.9586 0001541  68.7626 291.3528 15.06393661 88080","MEAN_MOTION_DOT":"-0.00000366","REF_FRAME":"TEME","BSTAR":"-0.00000567920000","FILE":"3216827","MEAN_ANOMALY":"291.3528","CLASSIFICATION_TYPE":"U","SEMIMAJOR_AXIS":"6925.368","INCLINATION":"53.0544","APOAPSIS":"548.300","NORAD_CAT_ID":"45562","PERIOD":"95.593","REV_AT_EPOCH":"8808","OBJECT_TYPE":"PAYLOAD","COUNTRY_CODE":"US","ARG_OF_PERICENTER":"68.7626","TIME_SYSTEM":"UTC","CENTER_NAME":"EARTH","EPOCH":"2021-11-16T09:11:43.964736","MEAN_ELEMENT_THEORY":"SGP4"},{"MEAN_ELEMENT_THEORY":"SGP4","EPOCH":"2021-11-16T06:21:53.485632","TIME_SYSTEM":"UTC","CENTER_NAME":"EARTH","ARG_OF_PERICENTER":"67.5381","COUNTRY_CODE":"US","OBJECT_TYPE":"PAYLOAD","REV_AT_EPOCH":"8746","PERIOD":"95.592","NORAD_CAT_ID":"45563","INCLINATION":"53.0555","APOAPSIS":"548.259","SEMIMAJOR_AXIS":"6925.343","CLASSIFICATION_TYPE":"U","FILE":"3216860","MEAN_ANOMALY":"292.5769","REF_FRAME":"TEME","BSTAR":"0.00014180000000","MEAN_MOTION_DOT":"0.00001831","TLE_LINE2":"2 45563  53.0555 314.4930 0001518  67.5381 292.5769 15.06401758 87469","SITE":"AFETR","RA_OF_ASC_NODE":"314.4930","GP_ID":"189883854","ELEMENT_SET_NO":"999","MEAN_MOTION_DDOT":"0.0000000000000","PERIAPSIS":"546.157","OBJECT_NAME":"STARLINK-1355","DECAY_DATE":null,"MEAN_MOTION":"15.06401758","TLE_LINE1":"1 45563U 20025AJ  21320.26520238  .00001831  00000-0  14180-3 0  9998","EPHEMERIS_TYPE":"0","OBJECT_ID":"2020-025AJ","LAUNCH_DATE":"2020-04-22","RCS_SIZE":"LARGE","ECCENTRICITY":"0.00015180"},{"MEAN_MOTION_DDOT":"0.0000000000000","PERIAPSIS":"546.098","OBJECT_NAME":"STARLINK-1356","SITE":"AFETR","RA_OF_ASC_NODE":"313.6063","ELEMENT_SET_NO":"999","GP_ID":"189889060","MEAN_ANOMALY":"291.4198","FILE":"3217076","REF_FRAME":"TEME","BSTAR":"0.00013784000000","MEAN_MOTION_DOT":"0.00001772","TLE_LINE2":"2 45564  53.0539 313.6063 0001605  68.6962 291.4198 15.06401216 87490","APOAPSIS":"548.321","INCLINATION":"53.0539","SEMIMAJOR_AXIS":"6925.345","CLASSIFICATION_TYPE":"U","PERIOD":"95.592","NORAD_CAT_ID":"45564","ARG_OF_PERICENTER":"68.6962","COUNTRY_CODE":"US","OBJECT_TYPE":"PAYLOAD","REV_AT_EPOCH":"8749","EPOCH":"2021-11-16T11:03:11.637504","TIME_SYSTEM":"UTC","CENTER_NAME":"EARTH","MEAN_ELEMENT_THEORY":"SGP4","RCS_SIZE":"LARGE","ECCENTRICITY":"0.00016050","OBJECT_ID":"2020-025AK","LAUNCH_DATE":"2020-04-22","EPHEMERIS_TYPE":"0","TLE_LINE1":"1 45564U 20025AK  21320.46055136  .00001772  00000-0  13784-3 0  9994","MEAN_MOTION":"15.06401216","DECAY_DATE":null},{"RCS_SIZE":"LARGE","ECCENTRICITY":"0.00015210","OBJECT_ID":"2020-025AL","LAUNCH_DATE":"2020-04-22","MEAN_MOTION":"15.06410522","DECAY_DATE":null,"EPHEMERIS_TYPE":"0","TLE_LINE1":"1 45565U 20025AL  21320.71855905  .00002143  00000-0  16265-3 0  9995","MEAN_ANOMALY":"284.3270","FILE":"3216860","BSTAR":"0.00016265000000","REF_FRAME":"TEME","MEAN_MOTION_DOT":"0.00002143","TLE_LINE2":"2 45565  53.0548 312.4541 0001521  75.7888 284.3270 15.06410522 87539","APOAPSIS":"548.235","INCLINATION":"53.0548","SEMIMAJOR_AXIS":"6925.316","CLASSIFICATION_TYPE":"U","MEAN_MOTION_DDOT":"0.0000000000000","PERIAPSIS":"546.128","OBJECT_NAME":"STARLINK-1357","SITE":"AFETR","RA_OF_ASC_NODE":"312.4541","ELEMENT_SET_NO":"999","GP_ID":"189883986","EPOCH":"2021-11-16T17:14:43.501920","CENTER_NAME":"EARTH","TIME_SYSTEM":"UTC","MEAN_ELEMENT_THEORY":"SGP4","PERIOD":"95.591","NORAD_CAT_ID":"45565","ARG_OF_PERICENTER":"75.7888","OBJECT_TYPE":"PAYLOAD","COUNTRY_CODE":"US","REV_AT_EPOCH":"8753"},{"CENTER_NAME":"EARTH","TIME_SYSTEM":"UTC","EPOCH":"2021-11-16T11:13:48.612864","MEAN_ELEMENT_THEORY":"SGP4","NORAD_CAT_ID":"45566","PERIOD":"95.593","REV_AT_EPOCH":"8809","OBJECT_TYPE":"PAYLOAD","COUNTRY_CODE":"US","ARG_OF_PERICENTER":"67.3041","TLE_LINE2":"2 45566  53.0548 313.5849 0001553  67.3041 292.8112 15.06394185 88093","MEAN_MOTION_DOT":"-0.00000650","BSTAR":"-0.00002472800000","REF_FRAME":"TEME","FILE":"3216827","MEAN_ANOMALY":"292.8112","CLASSIFICATION_TYPE":"U","SEMIMAJOR_AXIS":"6925.366","APOAPSIS":"548.307","INCLINATION":"53.0548","OBJECT_NAME":"STARLINK-1358","PERIAPSIS":"546.156","MEAN_MOTION_DDOT":"0.0000000000000","GP_ID":"189879887","ELEMENT_SET_NO":"999","RA_OF_ASC_NODE":"313.5849","SITE":"AFETR","MEAN_MOTION":"15.06394185","DECAY_DATE":null,"EPHEMERIS_TYPE":"0","TLE_LINE1":"1 45566U 20025AM  21320.46792376 -.00000650  00000-0 -24728-4 0  9997","ECCENTRICITY":"0.00015530","RCS_SIZE":"LARGE","LAUNCH_DATE":"2020-04-22","OBJECT_ID":"2020-025AM"},{"EPOCH":"2021-11-16T11:29:43.616256","TIME_SYSTEM":"UTC","CENTER_NAME":"EARTH","MEAN_ELEMENT_THEORY":"SGP4","PERIOD":"95.592","NORAD_CAT_ID":"45567","ARG_OF_PERICENTER":"63.9783","REV_AT_EPOCH":"8810","COUNTRY_CODE":"US","OBJECT_TYPE":"PAYLOAD","REF_FRAME":"TEME","BSTAR":"0.00003355300000","MEAN_ANOMALY":"296.1361","FILE":"3216827","TLE_LINE2":"2 45567  53.0545 313.5268 0001507  63.9783 296.1361 15.06401158 88104","MEAN_MOTION_DOT":"0.00000218","SEMIMAJOR_AXIS":"6925.345","APOAPSIS":"548.254","INCLINATION":"53.0545","CLASSIFICATION_TYPE":"U","OBJECT_NAME":"STARLINK-1361","MEAN_MOTION_DDOT":"0.0000000000000","PERIAPSIS":"546.166","RA_OF_ASC_NODE":"313.5268","SITE":"AFETR","GP_ID":"189880638","ELEMENT_SET_NO":"999","MEAN_MOTION":"15.06401158","DECAY_DATE":null,"EPHEMERIS_TYPE":"0","TLE_LINE1":"1 45567U 20025AN  21320.47897704  .00000218  00000-0  33553-4 0  9994","ECCENTRICITY":"0.00015070","RCS_SIZE":"LARGE","OBJECT_ID":"2020-025AN","LAUNCH_DATE":"2020-04-22"},{"DECAY_DATE":null,"MEAN_MOTION":"15.06407560","TLE_LINE1":"1 45568U 20025AP  21320.47066982  .00004252  00000-0  30414-3 0  9995","EPHEMERIS_TYPE":"0","OBJECT_ID":"2020-025AP","LAUNCH_DATE":"2020-04-22","RCS_SIZE":"LARGE","ECCENTRICITY":"0.00017700","MEAN_ELEMENT_THEORY":"SGP4","EPOCH":"2021-11-16T11:17:45.872448","TIME_SYSTEM":"UTC","CENTER_NAME":"EARTH","ARG_OF_PERICENTER":"71.4935","OBJECT_TYPE":"PAYLOAD","COUNTRY_CODE":"US","REV_AT_EPOCH":"8809","PERIOD":"95.592","NORAD_CAT_ID":"45568","APOAPSIS":"548.416","INCLINATION":"53.0536","SEMIMAJOR_AXIS":"6925.325","CLASSIFICATION_TYPE":"U","FILE":"3216827","MEAN_ANOMALY":"288.6246","REF_FRAME":"TEME","BSTAR":"0.00030414000000","MEAN_MOTION_DOT":"0.00004252","TLE_LINE2":"2 45568  53.0536 313.5693 0001770  71.4935 288.6246 15.06407560 88091","SITE":"AFETR","RA_OF_ASC_NODE":"313.5693","GP_ID":"189879386","ELEMENT_SET_NO":"999","PERIAPSIS":"545.965","MEAN_MOTION_DDOT":"0.0000000000000","OBJECT_NAME":"STARLINK-1363"}];
